start=new Date('2022-03-10T00:00:00.000Z').valueOf();
sats=[{"SEMIMAJOR_AXIS":"6925.393","EPHEMERIS_TYPE":"0","INCLINATION":"53.0548","MEAN_ANOMALY":"295.1754","OBJECT_TYPE":"PAYLOAD","APOAPSIS":"548.373","LAUNCH_DATE":"2020-08-07","PERIOD":"95.593","DECAY_DATE":null,"OBJECT_NAME":"STARLINK-1563","COUNTRY_CODE":"US","EPOCH":"2022-03-09T13:56:47.372640","REF_FRAME":"TEME","MEAN_MOTION_DDOT":"0.0000000000000","TIME_SYSTEM":"UTC","BSTAR":"0.00009686300000","REV_AT_EPOCH":"8855","PERIAPSIS":"546.143","CLASSIFICATION_TYPE":"U","ARG_OF_PERICENTER":"64.9402","NORAD_CAT_ID":"46078","RCS_SIZE":"LARGE","MEAN_ELEMENT_THEORY":"SGP4","GP_ID":"198333241","CENTER_NAME":"EARTH","OBJECT_ID":"2020-055BD","ELEMENT_SET_NO":"999","FILE":"3352658","RA_OF_ASC_NODE":"175.8002","TLE_LINE1":"1 46078U 20055BD  22068.58110385  .00001161  00000-0  96863-4 0  9991","ECCENTRICITY":"0.00016100","MEAN_MOTION_DOT":"0.00001161","SITE":"AFETR","TLE_LINE2":"2 46078  53.0548 175.8002 0001610  64.9402 295.1754 15.06385539 88552","MEAN_MOTION":"15.06385539"},{"MEAN_MOTION":"15.06391689","TLE_LINE2":"2 46079  53.0541 175.8211 0001489  76.8899 283.2256 15.06391689 89081","SITE":"AFETR","MEAN_MOTION_DOT":"-0.00000137","FILE":"3352425","RA_OF_ASC_NODE":"175.8211","ECCENTRICITY":"0.00014890","TLE_LINE1":"1 46079U 20055BE  22068.57372979 -.00000137  00000-0  97237-5 0  9990","ELEMENT_SET_NO":"999","GP_ID":"198323692","CENTER_NAME":"EARTH","MEAN_ELEMENT_THEORY":"SGP4","OBJECT_ID":"2020-055BE","RCS_SIZE":"LARGE","ARG_OF_PERICENTER":"76.8899","NORAD_CAT_ID":"46079","CLASSIFICATION_TYPE":"U","BSTAR":"0.00000972370000","REV_AT_EPOCH":"8908","PERIAPSIS":"546.208","COUNTRY_CODE":"US","EPOCH":"2022-03-09T13:46:10.253856","REF_FRAME":"TEME","MEAN_MOTION_DDOT":"0.0000000000000","TIME_SYSTEM":"UTC","OBJECT_NAME":"STARLINK-1566","DECAY_DATE":null,"PERIOD":"95.593","OBJECT_TYPE":"PAYLOAD","APOAPSIS":"548.270","LAUNCH_DATE":"2020-08-07","INCLINATION":"53.0541","EPHEMERIS_TYPE":"0","MEAN_ANOMALY":"283.2256","SEMIMAJOR_AXIS":"6925.374"},{"TLE_LINE2":"2 46080  53.0532 175.4026 0001476  71.3699 288.7450 15.06385361 89072","MEAN_MOTION":"15.06385361","MEAN_MOTION_DOT":"-0.00001289","SITE":"AFETR","ELEMENT_SET_NO":"999","FILE":"3352875","RA_OF_ASC_NODE":"175.4026","TLE_LINE1":"1 46080U 20055BF  22068.66587076 -.00001289  00000-0 -67684-4 0  9990","ECCENTRICITY":"0.00014760","RCS_SIZE":"LARGE","MEAN_ELEMENT_THEORY":"SGP4","GP_ID":"198359016","CENTER_NAME":"EARTH","OBJECT_ID":"2020-055BF","CLASSIFICATION_TYPE":"U","ARG_OF_PERICENTER":"71.3699","NORAD_CAT_ID":"46080","EPOCH":"2022-03-09T15:58:51.233664","COUNTRY_CODE":"US","REF_FRAME":"TEME","MEAN_MOTION_DDOT":"0.0000000000000","TIME_SYSTEM":"UTC","BSTAR":"-0.00006768400000","REV_AT_EPOCH":"8907","PERIAPSIS":"546.236","OBJECT_TYPE":"PAYLOAD","APOAPSIS":"548.281","LAUNCH_DATE":"2020-08-07","DECAY_DATE":null,"PERIOD":"95.593","OBJECT_NAME":"STARLINK-1568","SEMIMAJOR_AXIS":"6925.393","EPHEMERIS_TYPE":"0","INCLINATION":"53.0532","MEAN_ANOMALY":"288.7450"},{"ELEMENT_SET_NO":"999","TLE_LINE1":"1 46081U 20055BG  22068.56634844  .00008739  00000-0  60460-3 0  9995","ECCENTRICITY":"0.00015720","RA_OF_ASC_NODE":"175.8536","FILE":"3352662","RCS_SIZE":"LARGE","OBJECT_ID":"2020-055BG","GP_ID":"198333325","CENTER_NAME":"EARTH","MEAN_ELEMENT_THEORY":"SGP4","TLE_LINE2":"2 46081  53.0534 175.8536 0001572  65.7715 294.3438 15.06413997 88545","MEAN_MOTION":"15.06413997","MEAN_MOTION_DOT":"0.00008739","SITE":"AFETR","LAUNCH_DATE":"2020-08-07","OBJECT_TYPE":"PAYLOAD","APOAPSIS":"548.259","DECAY_DATE":null,"OBJECT_NAME":"STARLINK-1571","PERIOD":"95.591","SEMIMAJOR_AXIS":"6925.306","MEAN_ANOMALY":"294.3438","EPHEMERIS_TYPE":"0","INCLINATION":"53.0534","CLASSIFICATION_TYPE":"U","NORAD_CAT_ID":"46081","ARG_OF_PERICENTER":"65.7715","TIME_SYSTEM":"UTC","MEAN_MOTION_DDOT":"0.0000000000000","COUNTRY_CODE":"US","EPOCH":"2022-03-09T13:35:32.505216","REF_FRAME":"TEME","PERIAPSIS":"546.082","REV_AT_EPOCH":"8854","BSTAR":"0.00060460000000"},{"SEMIMAJOR_AXIS":"6925.381","EPHEMERIS_TYPE":"0","INCLINATION":"53.0548","MEAN_ANOMALY":"293.3852","APOAPSIS":"548.292","OBJECT_TYPE":"PAYLOAD","LAUNCH_DATE":"2020-08-07","PERIOD":"95.593","DECAY_DATE":null,"OBJECT_NAME":"STARLINK-1578","COUNTRY_CODE":"US","EPOCH":"2022-03-09T18:54:01.830816","REF_FRAME":"TEME","MEAN_MOTION_DDOT":"0.0000000000000","TIME_SYSTEM":"UTC","BSTAR":"0.00024896000000","REV_AT_EPOCH":"8911","PERIAPSIS":"546.201","CLASSIFICATION_TYPE":"U","ARG_OF_PERICENTER":"66.7296","NORAD_CAT_ID":"46082","RCS_SIZE":"LARGE","CENTER_NAME":"EARTH","GP_ID":"198358014","MEAN_ELEMENT_THEORY":"SGP4","OBJECT_ID":"2020-055BH","ELEMENT_SET_NO":"999","FILE":"3352875","RA_OF_ASC_NODE":"174.8542","ECCENTRICITY":"0.00015100","TLE_LINE1":"1 46082U 20055BH  22068.78752119  .00003428  00000-0  24896-3 0  9999","MEAN_MOTION_DOT":"0.00003428","SITE":"AFETR","TLE_LINE2":"2 46082  53.0548 174.8542 0001510  66.7296 293.3852 15.06389258 89119","MEAN_MOTION":"15.06389258"},{"NORAD_CAT_ID":"46083","ARG_OF_PERICENTER":"69.5028","CLASSIFICATION_TYPE":"U","PERIAPSIS":"546.285","BSTAR":"0.00026988000000","REV_AT_EPOCH":"8907","MEAN_MOTION_DDOT":"0.0000000000000","TIME_SYSTEM":"UTC","COUNTRY_CODE":"US","EPOCH":"2022-03-09T13:24:56.225376","REF_FRAME":"TEME","PERIOD":"95.592","DECAY_DATE":null,"OBJECT_NAME":"STARLINK-1579","LAUNCH_DATE":"2020-08-07","OBJECT_TYPE":"PAYLOAD","APOAPSIS":"548.176","EPHEMERIS_TYPE":"0","INCLINATION":"53.0539","MEAN_ANOMALY":"290.6107","SEMIMAJOR_AXIS":"6925.365","MEAN_MOTION":"15.06394553","TLE_LINE2":"2 46083  53.0539 175.8795 0001365  69.5028 290.6107 15.06394553 89075","SITE":"AFETR","MEAN_MOTION_DOT":"0.00003740","RA_OF_ASC_NODE":"175.8795","TLE_LINE1":"1 46083U 20055BJ  22068.55898409  .00003740  00000-0  26988-3 0  9999","ECCENTRICITY":"0.00013650","FILE":"3352425","ELEMENT_SET_NO":"999","CENTER_NAME":"EARTH","GP_ID":"198323193","MEAN_ELEMENT_THEORY":"SGP4","OBJECT_ID":"2020-055BJ","RCS_SIZE":"LARGE"},{"FILE":"3352425","ECCENTRICITY":"0.00016040","TLE_LINE1":"1 46117U 20057A   22068.26041859  .00005375  00000-0  37948-3 0  9990","RA_OF_ASC_NODE":"17.2303","ELEMENT_SET_NO":"999","OBJECT_ID":"2020-057A","MEAN_ELEMENT_THEORY":"SGP4","GP_ID":"198322446","CENTER_NAME":"EARTH","RCS_SIZE":"LARGE","MEAN_MOTION":"15.06400638","TLE_LINE2":"2 46117  53.0544  17.2303 0001604  58.5865 301.5281 15.06400638 86070","SITE":"AFETR","MEAN_MOTION_DOT":"0.00005375","DECAY_DATE":null,"PERIOD":"95.592","OBJECT_NAME":"STARLINK-1585","APOAPSIS":"548.322","OBJECT_TYPE":"PAYLOAD","LAUNCH_DATE":"2020-08-18","MEAN_ANOMALY":"301.5281","INCLINATION":"53.0544","EPHEMERIS_TYPE":"0","SEMIMAJOR_AXIS":"6925.347","ARG_OF_PERICENTER":"58.5865","NORAD_CAT_ID":"46117","CLASSIFICATION_TYPE":"U","REV_AT_EPOCH":"8607","BSTAR":"0.00037948000000","PERIAPSIS":"546.101","REF_FRAME":"TEME","COUNTRY_CODE":"US","EPOCH":"2022-03-09T06:15:00.166176","TIME_SYSTEM":"UTC","MEAN_MOTION_DDOT":"0.0000000000000"},{"SEMIMAJOR_AXIS":"6925.342","MEAN_ANOMALY":"305.1441","EPHEMERIS_TYPE":"0","INCLINATION":"53.0549","OBJECT_TYPE":"PAYLOAD","APOAPSIS":"548.342","LAUNCH_DATE":"2020-08-18","DECAY_DATE":null,"OBJECT_NAME":"STARLINK-1588","PERIOD":"95.592","EPOCH":"2022-03-09T14:25:58.520064","COUNTRY_CODE":"US","REF_FRAME":"TEME","TIME_SYSTEM":"UTC","MEAN_MOTION_DDOT":"0.0000000000000","REV_AT_EPOCH":"8712","BSTAR":"-0.00001175900000","PERIAPSIS":"546.071","CLASSIFICATION_TYPE":"U","ARG_OF_PERICENTER":"54.9701","NORAD_CAT_ID":"46118","RCS_SIZE":"LARGE","OBJECT_ID":"2020-057B","CENTER_NAME":"EARTH","GP_ID":"198357268","MEAN_ELEMENT_THEORY":"SGP4","ELEMENT_SET_NO":"999","FILE":"3352875","TLE_LINE1":"1 46118U 20057B   22068.60137176 -.00000457  00000-0 -11759-4 0  9998","ECCENTRICITY":"0.00016400","RA_OF_ASC_NODE":"35.6946","MEAN_MOTION_DOT":"-0.00000457","SITE":"AFETR","TLE_LINE2":"2 46118  53.0549  35.6946 0001640  54.9701 305.1441 15.06402255 87124","MEAN_MOTION":"15.06402255"},{"SEMIMAJOR_AXIS":"6925.345","EPHEMERIS_TYPE":"0","INCLINATION":"53.0563","MEAN_ANOMALY":"309.3209","LAUNCH_DATE":"2020-08-18","OBJECT_TYPE":"PAYLOAD","APOAPSIS":"548.419","OBJECT_NAME":"STARLINK-1593","DECAY_DATE":null,"PERIOD":"95.592","MEAN_MOTION_DDOT":"0.0000000000000","TIME_SYSTEM":"UTC","COUNTRY_CODE":"US","EPOCH":"2022-03-09T20:32:13.051104","REF_FRAME":"TEME","PERIAPSIS":"546.001","BSTAR":"0.00051162000000","REV_AT_EPOCH":"8714","CLASSIFICATION_TYPE":"U","NORAD_CAT_ID":"46119","ARG_OF_PERICENTER":"50.7935","RCS_SIZE":"LARGE","GP_ID":"198357518","CENTER_NAME":"EARTH","MEAN_ELEMENT_THEORY":"SGP4","OBJECT_ID":"2020-057C","ELEMENT_SET_NO":"999","RA_OF_ASC_NODE":"34.5692","ECCENTRICITY":"0.00017460","TLE_LINE1":"1 46119U 20057C   22068.85570661  .00007347  00000-0  51162-3 0  9990","FILE":"3352875","MEAN_MOTION_DOT":"0.00007347","SITE":"AFETR","TLE_LINE2":"2 46119  53.0563  34.5692 0001746  50.7935 309.3209 15.06401171 87143","MEAN_MOTION":"15.06401171"},{"EPOCH":"2022-03-09T07:26:39.328224","COUNTRY_CODE":"US","REF_FRAME":"TEME","TIME_SYSTEM":"UTC","MEAN_MOTION_DDOT":"0.0000000000000","REV_AT_EPOCH":"8708","BSTAR":"0.00007536100000","PERIAPSIS":"546.087","CLASSIFICATION_TYPE":"U","ARG_OF_PERICENTER":"60.9001","NORAD_CAT_ID":"46120","SEMIMAJOR_AXIS":"6925.361","MEAN_ANOMALY":"299.2152","EPHEMERIS_TYPE":"0","INCLINATION":"53.0551","APOAPSIS":"548.365","OBJECT_TYPE":"PAYLOAD","LAUNCH_DATE":"2020-08-18","DECAY_DATE":null,"OBJECT_NAME":"STARLINK-1601","PERIOD":"95.592","MEAN_MOTION_DOT":"0.00000841","SITE":"AFETR","TLE_LINE2":"2 46120  53.0551  37.0075 0001645  60.9001 299.2152 15.06395972 87088","MEAN_MOTION":"15.06395972","RCS_SIZE":"LARGE","OBJECT_ID":"2020-057D","MEAN_ELEMENT_THEORY":"SGP4","GP_ID":"198323697","CENTER_NAME":"EARTH","ELEMENT_SET_NO":"999","FILE":"3352425","TLE_LINE1":"1 46120U 20057D   22068.31017741  .00000841  00000-0  75361-4 0  9998","ECCENTRICITY":"0.00016450","RA_OF_ASC_NODE":"37.0075"}];
